[{"OBJECT_NAME":"STARLINK-1892","OBJECT_ID":"2020-074E","EPOCH":"2026-03-09T22:16:43.903488","MEAN_MOTION":15.50597372,"ECCENTRICITY":0.0004541,"INCLINATION":53.0467,"RA_OF_ASC_NODE":292.3712,"ARG_OF_PERICENTER":97.7841,"MEAN_ANOMALY":262.3683,"EPHEMERIS_TYPE":0,"CLASSIFICATION_TYPE":"U","NORAD_CAT_ID":46743,"ELEMENT_SET_NO":999,"REV_AT_EPOCH":29711,"BSTAR":0.0020777794,"MEAN_MOTION_DOT":0.0012244,"MEAN_MOTION_DDOT":0},{"OBJECT_NAME":"BREEZE-KM R\/B","OBJECT_ID":"2017-064B","EPOCH":"2026-03-09T23:37:28.009344","MEAN_MOTION":15.19279068,"ECCENTRICITY":0.01790923,"INCLINATION":98.7537,"RA_OF_ASC_NODE":74.9596,"ARG_OF_PERICENTER":357.1764,"MEAN_ANOMALY":2.8439,"EPHEMERIS_TYPE":0,"CLASSIFICATION_TYPE":"U","NORAD_CAT_ID":42970,"ELEMENT_SET_NO":999,"REV_AT_EPOCH":45981,"BSTAR":0.00038198457,"MEAN_MOTION_DOT":0.00012295,"MEAN_MOTION_DDOT":0}]
